{
    "links": {
        "self": "http://www.neowsapp.com/rest/v1/neo/3669888?api_key=iIulBulltgU6a56xZRHN4H3l9WmuAYTsLGpBGhQ2"
    },
    "id": "3669888",
    "neo_reference_id": "3669888",
    "name": "(2014 HX164)",
    "designation": "2014 HX164",
    "nasa_jpl_url": "http://ssd.jpl.nasa.gov/sbdb.cgi?sstr=3669888",
    "absolute_magnitude_h": 27.2,
    "estimated_diameter": {
        "kilometers": {
            "estimated_diameter_min": 0.0096506147,
            "estimated_diameter_max": 0.0215794305
        },
        "meters": {
            "estimated_diameter_min": 9.6506146958,
            "estimated_diameter_max": 21.5794304844
        },
        "miles": {
            "estimated_diameter_min": 0.0059966121,
            "estimated_diameter_max": 0.0134088323
        },
        "feet": {
            "estimated_diameter_min": 31.6621227185,
            "estimated_diameter_max": 70.7986587106
        }
    },
    "is_potentially_hazardous_asteroid": false,
    "close_approach_data": [
        {
            "close_approach_date": "2014-05-05",
            "close_approach_date_full": "2014-May-05 21:14",
            "epoch_date_close_approach": 1399324440000,
            "relative_velocity": {
                "kilometers_per_second": "8.8363899635",
                "kilometers_per_hour": "31811.0038686648",
                "miles_per_hour": "19766.1207093934"
            },
            "miss_distance": {
                "astronomical": "0.0029455294",
                "lunar": "1.1458109366",
                "kilometers": "440644.924262378",
                "miles": "273804.0594736964"
            },
            "orbiting_body": "Moon"
        },
        {
            "close_approach_date": "2014-05-06",
            "close_approach_date_full": "2014-May-06 00:46",
            "epoch_date_close_approach": 1399337160000,
            "relative_velocity": {
                "kilometers_per_second": "7.9210559063",
                "kilometers_per_hour": "28515.8012628574",
                "miles_per_hour": "17718.6099569127"
            },
            "miss_distance": {
                "astronomical": "0.002866357",
                "lunar": "1.115012873",
                "kilometers": "428800.90185959",
                "miles": "266444.525218742"
            },
            "orbiting_body": "Earth"
        },
        {
            "close_approach_date": "2021-04-08",
            "close_approach_date_full": "2021-Apr-08 05:39",
            "epoch_date_close_approach": 1617860340000,
            "relative_velocity": {
                "kilometers_per_second": "18.4249270594",
                "kilometers_per_hour": "66329.737413993",
                "miles_per_hour": "41214.7193392669"
            },
            "miss_distance": {
                "astronomical": "0.3580761814",
                "lunar": "139.2916345646",
                "kilometers": "53567434.035173618",
                "miles": "33285260.0514392084"
            },
            "orbiting_body": "Earth"
        },
        {
            "close_approach_date": "2033-08-25",
            "close_approach_date_full": "2033-Aug-25 05:14",
            "epoch_date_close_approach": 2008559640000,
            "relative_velocity": {
                "kilometers_per_second": "14.533143434",
                "kilometers_per_hour": "52319.3163623104",
                "miles_per_hour": "32509.1885474589"
            },
            "miss_distance": {
                "astronomical": "0.2365959533",
                "lunar": "92.0358258337",
                "kilometers": "35394250.664299471",
                "miles": "21992967.5353398598"
            },
            "orbiting_body": "Earth"
        },
        {
            "close_approach_date": "2059-09-04",
            "close_approach_date_full": "2059-Sep-04 04:56",
            "epoch_date_close_approach": 2829876960000,
            "relative_velocity": {
                "kilometers_per_second": "19.5779974647",
                "kilometers_per_hour": "70480.7908728998",
                "miles_per_hour": "43794.0225287749"
            },
            "miss_distance": {
                "astronomical": "0.4055517608",
                "lunar": "157.7596349512",
                "kilometers": "60669679.590429496",
                "miles": "37698390.7998832048"
            },
            "orbiting_body": "Earth"
        }
    ],
    "orbital_data": {
        "orbit_id": "10",
        "orbit_determination_date": "2017-04-06 08:41:18",
        "first_observation_date": "2014-04-28",
        "last_observation_date": "2014-05-04",
        "data_arc_in_days": 6,
        "observations_used": 33,
        "orbit_uncertainty": "7",
        "minimum_orbit_intersection": ".00261309",
        "jupiter_tisserand_invariant": "4.589",
        "epoch_osculation": "2459000.5",
        "eccentricity": ".3494617185458426",
        "semi_major_axis": "1.444107638352219",
        "inclination": "3.239325429031005",
        "ascending_node_longitude": "47.49263569060676",
        "orbital_period": "633.8664631284994",
        "perihelion_distance": ".9394473012884742",
        "perihelion_argument": "219.9548944362101",
        "aphelion_distance": "1.948767975415963",
        "perihelion_time": "2458720.312849956918",
        "mean_anomaly": "159.1303214208093",
        "mean_motion": ".5679429673928335",
        "equinox": "J2000",
        "orbit_class": {
            "orbit_class_type": "APO",
            "orbit_class_description": "Near-Earth asteroid orbits which cross the Earth’s orbit similar to that of 1862 Apollo",
            "orbit_class_range": "a (semi-major axis) > 1.0 AU; q (perihelion) < 1.017 AU"
        }
    },
    "is_sentry_object": false
}